ORBCOMM FM37            
1 33064U 08031E   24274.03592828  .00005565  00000+0  79889-3 0  9998
2 33064  48.4390 138.6313 0005382 334.5551 179.0525 14.77570807875864
ORBCOMM FM40            
1 33065U 08031F   24274.02783991  .00007012  00000+0  96202-3 0  9998
2 33065  48.4407 126.5355 0006408 344.8495 166.6584 14.79177362876046
VESSELSAT 1             
1 37840U 11058C   24274.19327229  .00000613  00000+0  18993-3 0  9993
2 37840  19.9610 226.9814 0013660 206.3641 153.6069 14.11222379669766
ORBCOMM FM109           
1 40086U 14040A   24273.74220932  .00003305  00000+0  76079-3 0  9996
2 40086  47.0025 165.5534 0002079 209.5897 150.4871 14.57244551543067
ORBCOMM FM107           
1 40087U 14040B   24273.91430372  .00002399  00000+0  56321-3 0  9997
2 40087  47.0038 165.7378 0001284 183.9969 176.0906 14.57181599543168
ORBCOMM FM106           
1 40088U 14040C   24273.63537377  .00004303  00000+0  77574-3 0  9990
2 40088  47.0614   9.5785 0018682 295.1022  64.7929 14.67837791545176
ORBCOMM FM104           
1 40090U 14040E   24273.89755213  .00002572  00000+0  62074-3 0  9997
2 40090  47.0045 196.3622 0016380  95.5448 264.7305 14.55640370542684
